0 THORAD AGENA D DEB
1 04552U 69082GT  13281.66008707  .00016302  00000-0  11905-2 0   508
2 04552 070.0249 004.7492 0017688 255.9301 196.8673 15.03603855316872
0 THORAD AGENA D DEB
1 04552U 69082GT  13282.39761725  .00026838  00000-0  19497-2 0   515
2 04552 070.0247 002.8761 0017598 255.1972 228.7282 15.03655880316982
0 THORAD AGENA D DEB
1 04552U 69082GT  13283.12032285  .00022179  00000-0  16124-2 0   528
2 04552 070.0247 001.0405 0017553 254.4110 180.5416 15.03683278317094
0 THORAD AGENA D DEB
1 04552U 69082GT  13283.98154580  .00021220  00000-0  15422-2 0   532
2 04552 070.0248 358.8533 0017476 253.4522 162.2331 15.03709730317220
0 THORAD AGENA D DEB
1 04552U 69082GT  13285.39145464  .00018033  00000-0  13106-2 0   546
2 04552 070.0249 355.2722 0017366 251.7923 234.1717 15.03757928317438
0 THORAD AGENA D DEB
1 04552U 69082GT  13287.51824432  .00019568  00000-0  14188-2 0   557
2 04552 070.0250 349.8702 0017247 249.0689 227.3173 15.03824592317751
0 THORAD AGENA D DEB
1 04552U 69082GT  13288.16774148  .00031019  00000-0  22388-2 0   564
2 04552 070.0249 348.2202 0017232 248.3334 143.3187 15.03866671317857
0 THORAD AGENA D DEB
1 04552U 69082GT  13289.16580094  .00025913  00000-0  18704-2 0   574
2 04552 070.0247 345.6848 0017200 247.0947 146.5141 15.03914993318007
0 THORAD AGENA D DEB
1 04552U 69082GT  13289.58811619  .00026777  00000-0  19319-2 0   583
2 04552 070.0246 344.6118 0017237 246.7430 272.6818 15.03922009318063
0 THORAD AGENA D DEB
1 04552U 69082GT  13290.96741433  .00021394  00000-0  15436-2 0   590
2 04552 070.0242 341.1077 0017181 245.2024 179.9367 15.03984232318273
0 THORAD AGENA D DEB
1 04552U 69082GT  13293.16255730  .00020101  00000-0  14479-2 0   608
2 04552 070.0233 335.5296 0016884 242.3348 185.0112 15.04067490318601
0 THORAD AGENA D DEB
1 04552U 69082GT  13295.49910014  .00027320  00000-0  19591-2 0   610
2 04552 070.0233 329.5908 0016596 239.0688 236.6009 15.04153332318951
